{
  "type": "FeatureCollection",
  "features": [
    {
      "type": "Feature",
      "properties": {
        "code_dept": "75",
        "nom": "Paris",
        "anomalie_temp_c": 1.97,
        "score_risque": 86.7
      },
      "geometry": {
        "type": "Point",
        "coordinates": [
          2.35,
          48.85
        ]
      }
    },
    {
      "type": "Feature",
      "properties": {
        "code_dept": "69",
        "nom": "Rhône",
        "anomalie_temp_c": 1.82,
        "score_risque": 82.4
      },
      "geometry": {
        "type": "Point",
        "coordinates": [
          4.82,
          45.74
        ]
      }
    },
    {
      "type": "Feature",
      "properties": {
        "code_dept": "13",
        "nom": "Bouches-du-Rhône",
        "anomalie_temp_c": 1.52,
        "score_risque": 71.0
      },
      "geometry": {
        "type": "Point",
        "coordinates": [
          5.36,
          43.3
        ]
      }
    },
    {
      "type": "Feature",
      "properties": {
        "code_dept": "33",
        "nom": "Gironde",
        "anomalie_temp_c": 1.62,
        "score_risque": 81.1
      },
      "geometry": {
        "type": "Point",
        "coordinates": [
          -0.58,
          44.84
        ]
      }
    },
    {
      "type": "Feature",
      "properties": {
        "code_dept": "67",
        "nom": "Bas-Rhin",
        "anomalie_temp_c": 2.15,
        "score_risque": 83.2
      },
      "geometry": {
        "type": "Point",
        "coordinates": [
          7.75,
          48.57
        ]
      }
    },
    {
      "type": "Feature",
      "properties": {
        "code_dept": "31",
        "nom": "Haute-Garonne",
        "anomalie_temp_c": 1.81,
        "score_risque": 85.9
      },
      "geometry": {
        "type": "Point",
        "coordinates": [
          1.44,
          43.6
        ]
      }
    },
    {
      "type": "Feature",
      "properties": {
        "code_dept": "06",
        "nom": "Alpes-Maritimes",
        "anomalie_temp_c": 1.44,
        "score_risque": 70.6
      },
      "geometry": {
        "type": "Point",
        "coordinates": [
          7.26,
          43.7
        ]
      }
    },
    {
      "type": "Feature",
      "properties": {
        "code_dept": "59",
        "nom": "Nord",
        "anomalie_temp_c": 1.9,
        "score_risque": 79.8
      },
      "geometry": {
        "type": "Point",
        "coordinates": [
          3.06,
          50.63
        ]
      }
    },
    {
      "type": "Feature",
      "properties": {
        "code_dept": "76",
        "nom": "Seine-Maritime",
        "anomalie_temp_c": 1.93,
        "score_risque": 82.9
      },
      "geometry": {
        "type": "Point",
        "coordinates": [
          1.09,
          49.44
        ]
      }
    },
    {
      "type": "Feature",
      "properties": {
        "code_dept": "34",
        "nom": "Hérault",
        "anomalie_temp_c": 1.29,
        "score_risque": 68.7
      },
      "geometry": {
        "type": "Point",
        "coordinates": [
          3.87,
          43.61
        ]
      }
    }
  ]
}